ONEWEB-0159             
1 48062U 21025W   25111.16708305  .00000199  00000+0  50868-3 0  9998
2 48062  87.8980  44.0680 0001957  88.4578 271.6775 13.13470616198203
ONEWEB-0164             
1 48063U 21025X   25110.76755240 -.00000610  00000+0 -17058-2 0  9997
2 48063  87.8981  44.1580 0001950  79.1596 280.9752 13.13470543198134
ONEWEB-0167             
1 48064U 21025Y   25110.79551347  .00000343  00000+0  90295-3 0  9999
2 48064  87.8989  44.1747 0001091  83.4339 276.6914 13.13472043198125
ONEWEB-0166             
1 48065U 21025Z   25110.74216664  .00000087  00000+0  20272-3 0  9998
2 48065  87.8977  44.1503 0002054  84.0213 276.1150 13.13472411198194
ONEWEB-0151             
1 48066U 21025AA  25111.35328558  .00000180  00000+0  45932-3 0  9997
2 48066  87.8981  44.0498 0001759  77.3425 282.7901 13.13471106198224
ONEWEB-0170             
1 48067U 21025AB  25110.82850642 -.00000204  00000+0 -59418-3 0  9996
2 48067  87.8983  44.1589 0001820  64.8569 295.2748 13.13471117198105
ONEWEB-0168             
1 48068U 21025AC  25111.19416105  .00000317  00000+0  83215-3 0  9995
2 48068  87.8987  44.0646 0001840  78.0670 282.0666 13.13470176198168
ONEWEB-0173             
1 48069U 21025AD  25110.34775441  .00000341  00000+0  89810-3 0  9997
2 48069  87.8986  44.2412 0001488  87.7688 272.3612 13.13471565198295
